KUIPER-00027            
1 63740U 25088S   25348.91668981 -.00005969  00000+0 -75578-3 0  9998
2 63740  51.8992 110.4412 0003963 230.9580 162.6879 14.79859074  1629
KUIPER-00028            
1 63741U 25088T   25348.04782100  .00002998  00000+0  42461-3 0  9995
2 63741  51.8995 112.2388 0003679 250.0577 109.9989 14.79677532 35370
KUIPER-00029            
1 63742U 25088U   25348.34466313 -.00000792  00000+0 -74536-4 0  9995
2 63742  51.9004 108.7090 0008950 196.4492 163.6181 14.79934834 34976
KUIPER-00030            
1 63743U 25088V   25348.75912088  .00001564  00000+0  23427-3 0  9994
2 63743  51.8998 126.1011 0015852 145.1009 215.0996 14.79930732 35058
KUIPER-00031            
1 63744U 25088W   25348.50348932 -.00000157  00000+0  85259-5 0  9990
2 63744  51.8992 113.3023 0004660 180.2478 179.8483 14.79972180 34925
KUIPER-00032            
1 63745U 25088X   25348.46172148  .00017755  00000+0  54664-3 0  9995
2 63745  51.8712  75.0648 0003918 182.3320 177.7648 15.33707206 36453
KUIPER-00033            
1 63746U 25088Y   25348.40383226  .00003664  00000+0  50991-3 0  9994
2 63746  51.8988 143.7311 0002983 235.3094 124.7588 14.79887362 34978
KUIPER-00034            
1 63747U 25088Z   25348.37654119 -.00003525  00000+0 -43343-3 0  9994
2 63747  51.9015 106.3639 0002160 178.3287 181.7683 14.79940606 35179
